{
  "last_updated": "2026-06-02T06:00:03.031747",
  "satellites": {
    "98592": {
      "name": "DUTHSat-2",
      "norad_id": "98592",
      "tle": "1 64530U 25135C   26152.26857781  .00014416  00000-0  55435-3 0  9995\n2 64530  97.4611 268.1913 0003879 231.9521 128.1368 15.26506585 52502",
      "epoch": "2026-06-01T06:26:45.122784",
      "fetched_at": "2026-06-02T06:00:03.194272",
      "source": "satnogs"
    },
    "98530": {
      "name": "LAMARR",
      "norad_id": "98530",
      "tle": "1 66673U 25276H   26026.90917087  .00034524  00000-0  16680-2 0  9998\n2 66673  97.4301 102.8338 0007597 141.5941 218.5835 15.18529012  8972",
      "epoch": "2026-01-26T21:49:12.363168",
      "fetched_at": "2026-01-28T06:00:02.884758",
      "source": "satnogs",
      "note": "Using previous TLE (fetch/manual failed today)"
    },
    "98529": {
      "name": "DIRAC",
      "norad_id": "98529",
      "tle": "1 66681U 25276R   26026.63281774  .00024563  00000-0  11745-2 0  9993\n2 66681  97.4280 102.5712 0006320 148.4115 211.7500 15.18972786  8932",
      "epoch": "2026-01-26T15:11:15.452736",
      "fetched_at": "2026-01-28T06:00:02.937152",
      "source": "satnogs",
      "note": "Using previous TLE (fetch/manual failed today)"
    },
    "98518": {
      "name": "MICE-1",
      "norad_id": "98518",
      "tle": "1 66684U 25276U   26152.17307150  .00004238  00000-0  20531-3 0  9993\n2 66684  97.4275 226.0687 0006738  60.7412 299.4495 15.19062016 27980",
      "epoch": "2026-06-01T04:09:13.377600",
      "fetched_at": "2026-06-02T06:00:03.397446",
      "source": "satnogs"
    },
    "68416": {
      "name": "PeakSat",
      "norad_id": "68416",
      "tle": "1 68416U 26067A   26151.82475733  .00008861  00000-0  42334-3 0  9992\n2 68416  97.4541 110.6118 0002038  29.0458 331.0889 15.19255924  9460",
      "epoch": "2026-05-31T19:47:39.033312",
      "fetched_at": "2026-06-02T06:00:03.458866",
      "source": "satnogs"
    },
    "98370": {
      "name": "OptiSat",
      "norad_id": "98370",
      "tle": "1 69696U 69696    26089.46895426  .00000000  00000-0  00000-0 0 00004\n2 69696 097.4414 038.3720 0003145 156.7651 191.1423 15.18459822000011",
      "epoch": "2026-03-30T11:15:17.648064",
      "fetched_at": "2026-04-17T12:47:18.541523",
      "source": "manual"
    },
    "68468": {
      "name": "ERMIS-1",
      "norad_id": "68468",
      "tle": "1 68468U 26067BE  26152.43171203  .00009431  00000-0  47424-3 0  9991\n2 68468  97.4547 111.0366 0008910 106.7579 253.4633 15.17420649  9544",
      "epoch": "2026-06-01T10:21:39.919392",
      "fetched_at": "2026-06-02T06:00:03.521546",
      "source": "satnogs"
    },
    "68420": {
      "name": "ERMIS-2",
      "norad_id": "68420",
      "tle": "1 68420U 26067E   26152.41663759  .00010249  00000-0  48636-3 0  9994\n2 68420  97.4477 111.1493 0001479  56.2072 303.9304 15.19451102  9553",
      "epoch": "2026-06-01T09:59:57.487776",
      "fetched_at": "2026-06-02T06:00:03.607876",
      "source": "satnogs"
    },
    "98367": {
      "name": "ERMIS-3",
      "norad_id": "98367",
      "tle": "1 68425U 26067K   26152.43991461  .00006090  00000-0  29747-3 0  9996\n2 68425  97.4581 111.2017 0002996  63.2214 296.9327 15.18617093  9556",
      "epoch": "2026-06-01T10:33:28.622304",
      "fetched_at": "2026-06-02T06:00:03.677700",
      "source": "satnogs"
    },
    "69021": {
      "name": "Helios",
      "norad_id": "69021",
      "tle": "1 69021U 26100AT  26152.17523436  .00007318  00000-0  34486-3 0  9991\n2 69021  97.4047  50.2492 0006287  58.4506 301.7342 15.19778890  4373",
      "epoch": "2026-06-01T04:12:20.248704",
      "fetched_at": "2026-06-02T06:00:03.742470",
      "source": "satnogs"
    },
    "69020": {
      "name": "Selene",
      "norad_id": "69020",
      "tle": "1 69020U 26100AS  26152.17704144  .00006116  00000-0  28965-3 0  9997\n2 69020  97.4063  50.2559 0005591  54.2230 305.9524 15.19676952  4373",
      "epoch": "2026-06-01T04:14:56.380416",
      "fetched_at": "2026-06-02T06:00:03.816207",
      "source": "satnogs"
    }
  },
  "fetch_log": []
}